CTC2_L_00508008-07
1 10062U 25477FF  26075.70047454  .00000000  00000+0  00000-0 0  9994
2 10062  96.3000  84.0000 0000000   0.0000 312.0000 15.59190035    16
CTC2_L_00508008-08
1 10063U 23671UI  26075.70047454  .00000000  00000+0  00000-0 0  9999
2 10063  96.3000  84.0000 0000000   0.0000 357.0000 15.59190035    16
CTC2_L_00508009-01
1 10064U 25962CM  26075.70047454  .00000000  00000+0  00000-0 0  9995
2 10064  96.3000  96.0000 0000000   0.0000  48.0000 15.59190035    17
CTC2_L_00508009-02
1 10065U 23371Z   26075.70047454  .00000000  00000+0  00000-0 0  9998
2 10065  96.3000  96.0000 0000000   0.0000  93.0000 15.59190035    18
CTC2_L_00508009-03
1 10066U 25062IQ  26075.70047454  .00000000  00000+0  00000-0 0  9998
2 10066  96.3000  96.0000 0000000   0.0000 138.0000 15.59190035    19
CTC2_L_00508009-04
1 10067U 26451YS  26075.70047454  .00000000  00000+0  00000-0 0  9992
2 10067  96.3000  96.0000 0000000   0.0000 183.0000 15.59190035    10
CTC2_L_00508009-05
1 10068U 26015SP  26075.70047454  .00000000  00000+0  00000-0 0  9999
2 10068  96.3000  96.0000 0000000   0.0000 228.0000 15.59190035    11
CTC2_L_00508009-06
1 10069U 24955AU  26075.70047454  .00000000  00000+0  00000-0 0  9991
2 10069  96.3000  96.0000 0000000   0.0000 273.0000 15.59190035    12
CTC2_L_00508009-07
1 10070U 22995RX  26075.70047454  .00000000  00000+0  00000-0 0  9995
2 10070  96.3000  96.0000 0000000   0.0000 318.0000 15.59190035    14
CTC2_L_00508009-08
1 10071U 22101MH  26075.70047454  .00000000  00000+0  00000-0 0  9995
2 10071  96.3000  96.0000 0000000   0.0000   3.0000 15.59190035    16
CTC2_L_00508010-01
1 10072U 23830BY  26075.70047454  .00000000  00000+0  00000-0 0  9996
2 10072  96.3000 108.0000 0000000   0.0000  54.0000 15.59190035    17
CTC2_L_00508010-02
1 10073U 25371HC  26075.70047454  .00000000  00000+0  00000-0 0  9999
2 10073  96.3000 108.0000 0000000   0.0000  99.0000 15.59190035    17
CTC2_L_00508010-03
1 10074U 25853KN  26075.70047454  .00000000  00000+0  00000-0 0  9995
2 10074  96.3000 108.0000 0000000   0.0000 144.0000 15.59190035    19
CTC2_L_00508010-04
1 10075U 24768NV  26075.70047454  .00000000  00000+0  00000-0 0  9990
2 10075  96.3000 108.0000 0000000   0.0000 189.0000 15.59190035    19
CTC2_L_00508010-05
1 10076U 23100RL  26075.70047454  .00000000  00000+0  00000-0 0  9990
2 10076  96.3000 108.0000 0000000   0.0000 234.0000 15.59190035    11
CTC2_L_00508010-06
1 10077U 24079TN  26075.70047454  .00000000  00000+0  00000-0 0  9997
2 10077  96.3000 108.0000 0000000   0.0000 279.0000 15.59190035    11
CTC2_L_00508010-07
1 10078U 25244RC  26075.70047454  .00000000  00000+0  00000-0 0  9993
2 10078  96.3000 108.0000 0000000   0.0000 324.0000 15.59190035    13
CTC2_L_00508010-08
1 10079U 23870MP  26075.70047454  .00000000  00000+0  00000-0 0  9997
2 10079  96.3000 108.0000 0000000   0.0000   9.0000 15.59190035    14
CTC2_L_00508011-01
1 10080U 24666OG  26075.70047454  .00000000  00000+0  00000-0 0  9993
2 10080  96.3000 120.0000 0000000   0.0000  60.0000 15.59190035    17
CTC2_L_00508011-02
1 10081U 23247CG  26075.70047454  .00000000  00000+0  00000-0 0  9998
2 10081  96.3000 120.0000 0000000   0.0000 105.0000 15.59190035    18
CTC2_L_00508011-03
1 10082U 23839ZQ  26075.70047454  .00000000  00000+0  00000-0 0  9996
2 10082  96.3000 120.0000 0000000   0.0000 150.0000 15.59190035    19
CTC2_L_00508011-04
1 10083U 25022UM  26075.70047454  .00000000  00000+0  00000-0 0  9993
2 10083  96.3000 120.0000 0000000   0.0000 195.0000 15.59190035    19
CTC2_L_00508011-05
1 10084U 25409ND  26075.70047454  .00000000  00000+0  00000-0 0  9993
2 10084  96.3000 120.0000 0000000   0.0000 240.0000 15.59190035    11
CTC2_L_00508011-06
1 10085U 25049CS  26075.70047454  .00000000  00000+0  00000-0 0  9994
2 10085  96.3000 120.0000 0000000   0.0000 285.0000 15.59190035    11
CTC2_L_00508011-07
1 10086U 25535GL  26075.70047454  .00000000  00000+0  00000-0 0  9995
2 10086  96.3000 120.0000 0000000   0.0000 330.0000 15.59190035    13
CTC2_L_00508011-08
1 10087U 25953PX  26075.70047454  .00000000  00000+0  00000-0 0  9990
2 10087  96.3000 120.0000 0000000   0.0000  15.0000 15.59190035    14
CTC2_L_00508012-01
1 10088U 25481K   26075.70047454  .00000000  00000+0  00000-0 0  9997
2 10088  96.3000 132.0000 0000000   0.0000  66.0000 15.59190035    14
CTC2_L_00508012-02
1 10089U 24979BL  26075.70047454  .00000000  00000+0  00000-0 0  9999
2 10089  96.3000 132.0000 0000000   0.0000 111.0000 15.59190035    16
CTC2_L_00508012-03
1 10090U 24955CM  26075.70047454  .00000000  00000+0  00000-0 0  9995
2 10090  96.3000 132.0000 0000000   0.0000 156.0000 15.59190035    17
CTC2_L_00508012-04
1 10091U 23012KR  26075.70047454  .00000000  00000+0  00000-0 0  9999
2 10091  96.3000 132.0000 0000000   0.0000 201.0000 15.59190035    19
CTC2_L_00508012-05
1 10092U 24578OG  26075.70047454  .00000000  00000+0  00000-0 0  9998
2 10092  96.3000 132.0000 0000000   0.0000 246.0000 15.59190035    19
CTC2_L_00508012-06
1 10093U 25364BC  26075.70047454  .00000000  00000+0  00000-0 0  9993
2 10093  96.3000 132.0000 0000000   0.0000 291.0000 15.59190035    10
CTC2_L_00508012-07
1 10094U 26779ZN  26075.70047454  .00000000  00000+0  00000-0 0  9995
2 10094  96.3000 132.0000 0000000   0.0000 336.0000 15.59190035    11
CTC2_L_00508012-08
1 10095U 25232QS  26075.70047454  .00000000  00000+0  00000-0 0  9999
2 10095  96.3000 132.0000 0000000   0.0000  21.0000 15.59190035    13
CTC2_L_00508013-01
1 10096U 23495WB  26075.70047454  .00000000  00000+0  00000-0 0  9999
2 10096  96.3000 144.0000 0000000   0.0000  72.0000 15.59190035    13
CTC2_L_00508013-02
1 10097U 22243GV  26075.70047454  .00000000  00000+0  00000-0 0  9990
2 10097  96.3000 144.0000 0000000   0.0000 117.0000 15.59190035    14
CTC2_L_00508013-03
1 10098U 22024RA  26075.70047454  .00000000  00000+0  00000-0 0  9998
2 10098  96.3000 144.0000 0000000   0.0000 162.0000 15.59190035    15
CTC2_L_00508013-04
1 10099U 26845SY  26075.70047454  .00000000  00000+0  00000-0 0  9994
2 10099  96.3000 144.0000 0000000   0.0000 207.0000 15.59190035    16
CTC2_L_00508013-05
1 10100U 23532NN  26075.70047454  .00000000  00000+0  00000-0 0  9997
2 10100  96.3000 144.0000 0000000   0.0000 252.0000 15.59190035    19
CTC2_L_00508013-06
1 10101U 24366MG  26075.70047454  .00000000  00000+0  00000-0 0  9994
2 10101  96.3000 144.0000 0000000   0.0000 297.0000 15.59190035    19
CTC2_L_00508013-07
1 10102U 22898SO  26075.70047454  .00000000  00000+0  00000-0 0  9993
2 10102  96.3000 144.0000 0000000   0.0000 342.0000 15.59190035    11
CTC2_L_00508013-08
1 10103U 25946VG  26075.70047454  .00000000  00000+0  00000-0 0  9991
2 10103  96.3000 144.0000 0000000   0.0000  27.0000 15.59190035    12
CTC2_L_00508014-01
1 10104U 24481PO  26075.70047454  .00000000  00000+0  00000-0 0  9995
2 10104  96.3000 156.0000 0000000   0.0000  78.0000 15.59190035    12
CTC2_L_00508014-02
1 10105U 23571FB  26075.70047454  .00000000  00000+0  00000-0 0  9995
2 10105  96.3000 156.0000 0000000   0.0000 123.0000 15.59190035    14
CTC2_L_00508014-03
1 10106U 24912IR  26075.70047454  .00000000  00000+0  00000-0 0  9996
2 10106  96.3000 156.0000 0000000   0.0000 168.0000 15.59190035    14
CTC2_L_00508014-04
1 10107U 23887DA  26075.70047454  .00000000  00000+0  00000-0 0  9997
2 10107  96.3000 156.0000 0000000   0.0000 213.0000 15.59190035    16
CTC2_L_00508014-05
1 10108U 22285GN  26075.70047454  .00000000  00000+0  00000-0 0  9999
2 10108  96.3000 156.0000 0000000   0.0000 258.0000 15.59190035    16
CTC2_L_00508014-06
1 10109U 25796DA  26075.70047454  .00000000  00000+0  00000-0 0  9990
2 10109  96.3000 156.0000 0000000   0.0000 303.0000 15.59190035    18
CTC2_L_00508014-07
1 10110U 25308KK  26075.70047454  .00000000  00000+0  00000-0 0  9991
2 10110  96.3000 156.0000 0000000   0.0000 348.0000 15.59190035    19
CTC2_L_00508014-08
1 10111U 22943RW  26075.70047454  .00000000  00000+0  00000-0 0  9994
2 10111  96.3000 156.0000 0000000   0.0000  33.0000 15.59190035    11
CTC2_L_00508015-01
1 10112U 24671QD  26075.70047454  .00000000  00000+0  00000-0 0  9995
2 10112  96.3000 168.0000 0000000   0.0000  84.0000 15.59190035    11
CTC2_L_00508015-02
1 10113U 26983O   26075.70047454  .00000000  00000+0  00000-0 0  9994
2 10113  96.3000 168.0000 0000000   0.0000 129.0000 15.59190035    12
CTC2_L_00508015-03
1 10114U 25977O   26075.70047454  .00000000  00000+0  00000-0 0  9997
2 10114  96.3000 168.0000 0000000   0.0000 174.0000 15.59190035    13
CTC2_L_00508015-04
1 10115U 26210QH  26075.70047454  .00000000  00000+0  00000-0 0  9999
2 10115  96.3000 168.0000 0000000   0.0000 219.0000 15.59190035    14
CTC2_L_00508015-05
1 10116U 22554H   26075.70047454  .00000000  00000+0  00000-0 0  9997
2 10116  96.3000 168.0000 0000000   0.0000 264.0000 15.59190035    15
CTC2_L_00508015-06
1 10117U 26827SA  26075.70047454  .00000000  00000+0  00000-0 0  9995
2 10117  96.3000 168.0000 0000000   0.0000 309.0000 15.59190035    16
CTC2_L_00508015-07
1 10118U 25832MQ  26075.70047454  .00000000  00000+0  00000-0 0  9991
2 10118  96.3000 168.0000 0000000   0.0000 354.0000 15.59190035    17
CTC2_L_00508015-08
1 10119U 23143BJ  26075.70047454  .00000000  00000+0  00000-0 0  9995
2 10119  96.3000 168.0000 0000000   0.0000  39.0000 15.59190035    18
CTC2_L_00508016-01
1 10120U 22144OF  26075.70047454  .00000000  00000+0  00000-0 0  9997
2 10120  96.3000 180.0000 0000000   0.0000  90.0000 15.59190035    11
CTC2_L_00508016-02
1 10121U 24823US  26075.70047454  .00000000  00000+0  00000-0 0  9994
2 10121  96.3000 180.0000 0000000   0.0000 135.0000 15.59190035    12
CTC2_L_00508016-03
1 10122U 24183WP  26075.70047454  .00000000  00000+0  00000-0 0  9994
2 10122  96.3000 180.0000 0000000   0.0000 180.0000 15.59190035    13
CTC2_L_00508016-04
1 10123U 25557MA  26075.70047454  .00000000  00000+0  00000-0 0  9991
2 10123  96.3000 180.0000 0000000   0.0000 225.0000 15.59190035    14
